[{"OBJECT_NAME":"ONEWEB-0412","OBJECT_ID":"2021-132W","EPOCH":"2026-03-09T16:56:58.609824","MEAN_MOTION":13.18686027,"ECCENTRICITY":0.00015108,"INCLINATION":87.9252,"RA_OF_ASC_NODE":355.2165,"ARG_OF_PERICENTER":84.9612,"MEAN_ANOMALY":275.1692,"EPHEMERIS_TYPE":0,"CLASSIFICATION_TYPE":"U","NORAD_CAT_ID":50489,"ELEMENT_SET_NO":999,"REV_AT_EPOCH":20854,"BSTAR":-0.00020982512,"MEAN_MOTION_DOT":-7.0e-7,"MEAN_MOTION_DDOT":0},{"OBJECT_NAME":"CZ-4C DEB","OBJECT_ID":"2010-059E","EPOCH":"2026-03-09T08:48:23.177952","MEAN_MOTION":13.71352703,"ECCENTRICITY":0.02690884,"INCLINATION":98.6543,"RA_OF_ASC_NODE":275.3464,"ARG_OF_PERICENTER":99.3571,"MEAN_ANOMALY":25.4803,"EPHEMERIS_TYPE":0,"CLASSIFICATION_TYPE":"U","NORAD_CAT_ID":38295,"ELEMENT_SET_NO":999,"REV_AT_EPOCH":65479,"BSTAR":0.00037577364,"MEAN_MOTION_DOT":4.01e-6,"MEAN_MOTION_DDOT":0}]
